OBJECT B                
1 51825U 22019B   25201.84570541  .00016245  00000+0  38435-3 0  9992
2 51825  97.3840 278.9335 0008395 255.0527 104.9791 15.41845737188252
